{"fetched_at":"2026-03-29T02:12:04Z","count":15717,"tles":[{"name":"CARTOSAT-2E","line1":"1 42767U 17036C   26086.70285573 -.00000078  00000+0 -49598-6 0  9999","line2":"2 42767  97.4362 147.8107 0002594 217.4798 142.6256 15.19224706485779","category":"Other"}]}